STARLINK-35833          
1 66542U 25265AC  25331.16670139 -.01482998  00000+0 -55477-2 0  9992
2 66542  43.0015 147.4165 0002037 272.7751  86.3815 15.89818659  2495
STARLINK-35315          
1 66543U 25265AD  25331.16670139 -.01483246  00000+0 -55368-2 0  9999
2 66543  43.0016 147.4112 0001954 273.0394  87.9787 15.89861605  2385
STARLINK-35728          
1 66544U 25265AE  25331.16670139 -.01483274  00000+0 -55255-2 0  9996
2 66544  43.0014 147.4073 0002001 272.3828  90.3530 15.89901071  2496
SHIJIAN-30A             
1 66545U 25266A   25331.19325831  .00011222  00000+0  60504-3 0  9998
2 66545  51.7983  45.6762 0012797 300.1809  59.7899 15.15165036  1223
SHIJIAN-30B             
1 66546U 25266B   25331.19444694  .00010429  00000+0  56335-3 0  9993
2 66546  51.7964  45.6824 0010379 301.8680  58.1286 15.15197406  1220
SHIJIAN-30C             
1 66547U 25266C   25331.19540480  .00011613  00000+0  62408-3 0  9998
2 66547  51.7975  45.6887 0011265 294.3146  65.6653 15.15262065  1225
CZ-2C R/B               
1 66548U 25266D   25331.18579767  .00012114  00000+0  38370-3 0  9996
2 66548  52.0554  45.3539 0085232 119.9518 240.9964 15.29677695  1232
GLOBAL-33               
1 66554U 25267A   25330.94538635  .00012160  00000+0  40358-3 0  9996
2 66554  42.0191 148.1409 0006269 305.5234  54.5018 15.31096501   988
ELECTRON KICK STAGE R/B 
1 66555U 25267B   25330.94286111  .00023369  00000+0  75048-3 0  9993
2 66555  42.0177 148.1253 0007974 304.2194  55.7888 15.31779023   980
ELECTRON R/B            
1 66556U 25267C   25330.82194579  .05297981  81906-5  11744-2 0  9997
2 66556  42.0330 145.3151 0117410 308.1787  50.8551 16.13459608  1008
STARLINK-35699          
1 66557U 25268A   25330.66668981 -.01402134  57699-3 -35015-2 0  9997
2 66557  42.9977 217.9255 0001874 258.8605 346.4994 15.94914212  2081
STARLINK-35695          
1 66558U 25268B   25330.66668981 -.01394405  57154-3 -34699-2 0  9992
2 66558  42.9978 217.9226 0001896 249.2284 357.3510 15.94978355  2085
