CCSDS_OMM_VERS = 2.0
CREATION_DATE  = 
ORIGINATOR     = 

OBJECT_NAME    = STARLINK-35833
OBJECT_ID      = 2025-265AC
CENTER_NAME    = EARTH
REF_FRAME      = TEME
TIME_SYSTEM    = UTC
MEAN_ELEMENT_THEORY = SGP/SGP4

EPOCH          = 2025-11-27T04:00:03.000096
MEAN_MOTION    = 15.89818659
ECCENTRICITY   = .0002037
INCLINATION    = 43.0015
RA_OF_ASC_NODE = 147.4165
ARG_OF_PERICENTER = 272.7751
MEAN_ANOMALY   = 86.3815

EPHEMERIS_TYPE = 0
CLASSIFICATION_TYPE = U
NORAD_CAT_ID   = 66542
ELEMENT_SET_NO = 999
REV_AT_EPOCH   = 249
BSTAR          = -.55477E-2
MEAN_MOTION_DOT = -.1482998E-1
MEAN_MOTION_DDOT = 0

CCSDS_OMM_VERS = 2.0
CREATION_DATE  = 
ORIGINATOR     = 

OBJECT_NAME    = STARLINK-35315
OBJECT_ID      = 2025-265AD
CENTER_NAME    = EARTH
REF_FRAME      = TEME
TIME_SYSTEM    = UTC
MEAN_ELEMENT_THEORY = SGP/SGP4

EPOCH          = 2025-11-27T04:00:03.000096
MEAN_MOTION    = 15.89861605
ECCENTRICITY   = .0001954
INCLINATION    = 43.0016
RA_OF_ASC_NODE = 147.4112
ARG_OF_PERICENTER = 273.0394
MEAN_ANOMALY   = 87.9787

EPHEMERIS_TYPE = 0
CLASSIFICATION_TYPE = U
NORAD_CAT_ID   = 66543
ELEMENT_SET_NO = 999
REV_AT_EPOCH   = 238
BSTAR          = -.55368E-2
MEAN_MOTION_DOT = -.1483246E-1
MEAN_MOTION_DDOT = 0

CCSDS_OMM_VERS = 2.0
CREATION_DATE  = 
ORIGINATOR     = 

OBJECT_NAME    = STARLINK-35728
OBJECT_ID      = 2025-265AE
CENTER_NAME    = EARTH
REF_FRAME      = TEME
TIME_SYSTEM    = UTC
MEAN_ELEMENT_THEORY = SGP/SGP4

EPOCH          = 2025-11-27T04:00:03.000096
MEAN_MOTION    = 15.89901071
ECCENTRICITY   = .0002001
INCLINATION    = 43.0014
RA_OF_ASC_NODE = 147.4073
ARG_OF_PERICENTER = 272.3828
MEAN_ANOMALY   = 90.3530

EPHEMERIS_TYPE = 0
CLASSIFICATION_TYPE = U
NORAD_CAT_ID   = 66544
ELEMENT_SET_NO = 999
REV_AT_EPOCH   = 249
BSTAR          = -.55255E-2
MEAN_MOTION_DOT = -.1483274E-1
MEAN_MOTION_DDOT = 0

CCSDS_OMM_VERS = 2.0
CREATION_DATE  = 
ORIGINATOR     = 

OBJECT_NAME    = SHIJIAN-30A
OBJECT_ID      = 2025-266A
CENTER_NAME    = EARTH
REF_FRAME      = TEME
TIME_SYSTEM    = UTC
MEAN_ELEMENT_THEORY = SGP/SGP4

EPOCH          = 2025-11-27T04:38:17.517984
MEAN_MOTION    = 15.15165036
ECCENTRICITY   = .0012797
INCLINATION    = 51.7983
RA_OF_ASC_NODE = 45.6762
ARG_OF_PERICENTER = 300.1809
MEAN_ANOMALY   = 59.7899

EPHEMERIS_TYPE = 0
CLASSIFICATION_TYPE = U
NORAD_CAT_ID   = 66545
ELEMENT_SET_NO = 999
REV_AT_EPOCH   = 122
BSTAR          = .60504E-3
MEAN_MOTION_DOT = .11222E-3
MEAN_MOTION_DDOT = 0

CCSDS_OMM_VERS = 2.0
CREATION_DATE  = 
ORIGINATOR     = 

OBJECT_NAME    = SHIJIAN-30B
OBJECT_ID      = 2025-266B
CENTER_NAME    = EARTH
REF_FRAME      = TEME
TIME_SYSTEM    = UTC
MEAN_ELEMENT_THEORY = SGP/SGP4

EPOCH          = 2025-11-27T04:40:00.215616
MEAN_MOTION    = 15.15197406
ECCENTRICITY   = .0010379
INCLINATION    = 51.7964
RA_OF_ASC_NODE = 45.6824
ARG_OF_PERICENTER = 301.8680
MEAN_ANOMALY   = 58.1286

EPHEMERIS_TYPE = 0
CLASSIFICATION_TYPE = U
NORAD_CAT_ID   = 66546
ELEMENT_SET_NO = 999
REV_AT_EPOCH   = 122
BSTAR          = .56335E-3
MEAN_MOTION_DOT = .10429E-3
MEAN_MOTION_DDOT = 0

CCSDS_OMM_VERS = 2.0
CREATION_DATE  = 
ORIGINATOR     = 

OBJECT_NAME    = SHIJIAN-30C
OBJECT_ID      = 2025-266C
CENTER_NAME    = EARTH
REF_FRAME      = TEME
TIME_SYSTEM    = UTC
MEAN_ELEMENT_THEORY = SGP/SGP4

EPOCH          = 2025-11-27T04:41:22.974720
MEAN_MOTION    = 15.15262065
ECCENTRICITY   = .0011265
INCLINATION    = 51.7975
RA_OF_ASC_NODE = 45.6887
ARG_OF_PERICENTER = 294.3146
MEAN_ANOMALY   = 65.6653

EPHEMERIS_TYPE = 0
CLASSIFICATION_TYPE = U
NORAD_CAT_ID   = 66547
ELEMENT_SET_NO = 999
REV_AT_EPOCH   = 122
BSTAR          = .62408E-3
MEAN_MOTION_DOT = .11613E-3
MEAN_MOTION_DDOT = 0

CCSDS_OMM_VERS = 2.0
CREATION_DATE  = 
ORIGINATOR     = 

OBJECT_NAME    = CZ-2C R/B
OBJECT_ID      = 2025-266D
CENTER_NAME    = EARTH
REF_FRAME      = TEME
TIME_SYSTEM    = UTC
MEAN_ELEMENT_THEORY = SGP/SGP4

EPOCH          = 2025-11-27T04:27:32.918688
MEAN_MOTION    = 15.29677695
ECCENTRICITY   = .0085232
INCLINATION    = 52.0554
RA_OF_ASC_NODE = 45.3539
ARG_OF_PERICENTER = 119.9518
MEAN_ANOMALY   = 240.9964

EPHEMERIS_TYPE = 0
CLASSIFICATION_TYPE = U
NORAD_CAT_ID   = 66548
ELEMENT_SET_NO = 999
REV_AT_EPOCH   = 123
BSTAR          = .3837E-3
MEAN_MOTION_DOT = .12114E-3
MEAN_MOTION_DDOT = 0

CCSDS_OMM_VERS = 2.0
CREATION_DATE  = 
ORIGINATOR     = 

OBJECT_NAME    = GLOBAL-33
OBJECT_ID      = 2025-267A
CENTER_NAME    = EARTH
REF_FRAME      = TEME
TIME_SYSTEM    = UTC
MEAN_ELEMENT_THEORY = SGP/SGP4

EPOCH          = 2025-11-26T22:41:21.380640
MEAN_MOTION    = 15.31096501
ECCENTRICITY   = .00062699
INCLINATION    = 42.0191
RA_OF_ASC_NODE = 148.1409
ARG_OF_PERICENTER = 305.5234
MEAN_ANOMALY   = 54.5018

EPHEMERIS_TYPE = 0
CLASSIFICATION_TYPE = U
NORAD_CAT_ID   = 66554
ELEMENT_SET_NO = 999
REV_AT_EPOCH   = 98
BSTAR          = .40357836E-3
MEAN_MOTION_DOT = .1216E-3
MEAN_MOTION_DDOT = 0

CCSDS_OMM_VERS = 2.0
CREATION_DATE  = 
ORIGINATOR     = 

OBJECT_NAME    = ELECTRON KICK STAGE R/B
OBJECT_ID      = 2025-267B
CENTER_NAME    = EARTH
REF_FRAME      = TEME
TIME_SYSTEM    = UTC
MEAN_ELEMENT_THEORY = SGP/SGP4

EPOCH          = 2025-11-26T22:37:43.199904
MEAN_MOTION    = 15.31779023
ECCENTRICITY   = .00079744
INCLINATION    = 42.0177
RA_OF_ASC_NODE = 148.1253
ARG_OF_PERICENTER = 304.2194
MEAN_ANOMALY   = 55.7888

EPHEMERIS_TYPE = 0
CLASSIFICATION_TYPE = U
NORAD_CAT_ID   = 66555
ELEMENT_SET_NO = 999
REV_AT_EPOCH   = 98
BSTAR          = .75047942E-3
MEAN_MOTION_DOT = .23369E-3
MEAN_MOTION_DDOT = 0

CCSDS_OMM_VERS = 2.0
CREATION_DATE  = 
ORIGINATOR     = 

OBJECT_NAME    = ELECTRON R/B
OBJECT_ID      = 2025-267C
CENTER_NAME    = EARTH
REF_FRAME      = TEME
TIME_SYSTEM    = UTC
MEAN_ELEMENT_THEORY = SGP/SGP4

EPOCH          = 2025-11-26T19:43:36.116256
MEAN_MOTION    = 16.13459608
ECCENTRICITY   = .01174105
INCLINATION    = 42.0330
RA_OF_ASC_NODE = 145.3151
ARG_OF_PERICENTER = 308.1787
MEAN_ANOMALY   = 50.8551

EPHEMERIS_TYPE = 0
CLASSIFICATION_TYPE = U
NORAD_CAT_ID   = 66556
ELEMENT_SET_NO = 999
REV_AT_EPOCH   = 100
BSTAR          = .11743631E-2
MEAN_MOTION_DOT = .5297981E-1
MEAN_MOTION_DDOT = .8190552E-5

CCSDS_OMM_VERS = 2.0
CREATION_DATE  = 
ORIGINATOR     = 

OBJECT_NAME    = STARLINK-35699
OBJECT_ID      = 2025-268A
CENTER_NAME    = EARTH
REF_FRAME      = TEME
TIME_SYSTEM    = UTC
MEAN_ELEMENT_THEORY = SGP/SGP4

EPOCH          = 2025-11-26T16:00:01.999584
MEAN_MOTION    = 15.94914212
ECCENTRICITY   = .0001874
INCLINATION    = 42.9977
RA_OF_ASC_NODE = 217.9255
ARG_OF_PERICENTER = 258.8605
MEAN_ANOMALY   = 346.4994

EPHEMERIS_TYPE = 0
CLASSIFICATION_TYPE = U
NORAD_CAT_ID   = 66557
ELEMENT_SET_NO = 999
REV_AT_EPOCH   = 208
BSTAR          = -.35015E-2
MEAN_MOTION_DOT = -.1402134E-1
MEAN_MOTION_DDOT = .57699305E-3

CCSDS_OMM_VERS = 2.0
CREATION_DATE  = 
ORIGINATOR     = 

OBJECT_NAME    = STARLINK-35695
OBJECT_ID      = 2025-268B
CENTER_NAME    = EARTH
REF_FRAME      = TEME
TIME_SYSTEM    = UTC
MEAN_ELEMENT_THEORY = SGP/SGP4

EPOCH          = 2025-11-26T16:00:01.999584
MEAN_MOTION    = 15.94978355
ECCENTRICITY   = .00018963
INCLINATION    = 42.9978
RA_OF_ASC_NODE = 217.9226
ARG_OF_PERICENTER = 249.2284
MEAN_ANOMALY   = 357.3510

EPHEMERIS_TYPE = 0
CLASSIFICATION_TYPE = U
NORAD_CAT_ID   = 66558
ELEMENT_SET_NO = 999
REV_AT_EPOCH   = 208
BSTAR          = -.34699369E-2
MEAN_MOTION_DOT = -.1394405E-1
MEAN_MOTION_DDOT = .57154495E-3

